GSAT-16                 
1 40332U 14078A   26168.90771502  .00000079  00000+0  00000+0 0  9990
2 40332   0.0918  89.4173 0007565   0.2720 198.3155  1.00270297 42116
DIRECTV 14              
1 40333U 14078B   26168.97879149 -.00000131  00000+0  00000+0 0  9994
2 40333   0.0098  23.1294 0000435 292.0243 204.1979  1.00271608 42055
YAMAL 401               
1 40345U 14082A   26168.91464839  .00000000  00000+0  00000+0 0  9996
2 40345   0.0153   0.7739 0000130 293.5170  31.1082  1.00270806 41929
ASTRA 2G                
1 40364U 14089A   26168.26076118  .00000146  00000+0  00000+0 0  9992
2 40364   0.0457 356.8073 0004500  73.2664 317.5337  1.00273746 41963
FENGYUN 2G              
1 40367U 14090A   26168.77395412 -.00000310  00000+0  00000+0 0  9998
2 40367   5.6410  72.8081 0004012 158.0009  53.5218  1.00271765 42003
MUOS-3                  
1 40374U 15002A   26168.89375564 -.00000136  00000+0  00000+0 0  9995
2 40374   4.5219  43.5255 0051997 178.0128 350.9232  1.00271461 41598
INMARSAT 5-F2           
1 40384U 15005A   26168.45818182 -.00000290  00000+0  00000+0 0  9990
2 40384   0.0183 359.5197 0000690 309.2992  66.8429  1.00272028 40990
ABS-3A                  
1 40424U 15010A   26167.91989406 -.00000028  00000+0  00000+0 0  9998
2 40424   0.0018 358.9464 0001832  29.3198 205.0834  1.00277277 41370
EUTELSAT 115 WEST B     
1 40425U 15010B   26168.46919677 -.00000030  00000+0  00000+0 0  9996
2 40425   0.0113 150.4979 0000428 288.8960 240.3379  1.00272513 41398
EXPRESS-AM7             
1 40505U 15012A   26168.90468168  .00000145  00000+0  00000+0 0  9996
2 40505   0.0163  24.2690 0002890  68.3051 179.2364  1.00270950 41013
BEIDOU-3S IGSO-1S       
1 40549U 15019A   26167.83844597 -.00000175  00000+0  00000+0 0  9990
2 40549  49.1960 295.4654 0039047 191.2267 171.7060  1.00249739 41078
THOR 7                  
1 40613U 15022A   26168.89670231 -.00000014  00000+0  00000+0 0  9997
2 40613   0.0285 237.3037 0002401 208.1369 142.8725  1.00272833 40821
TURKMENALEM52E/MONACOSAT
1 40617U 15023A   26168.90710836  .00000098  00000+0  00000+0 0  9991
2 40617   0.0391  77.2306 0002691   2.9939 204.4907  1.00271261 40851
DIRECTV 15              
1 40663U 15026A   26168.87642418 -.00000107  00000+0  00000+0 0  9993
2 40663   0.0114  46.9988 0000402 273.9598 157.7890  1.00267772 40474
SKY MEXICO-1            
1 40664U 15026B   26168.88119087 -.00000240  00000+0  00000+0 0  9994
2 40664   0.0159  23.9234 0002076  83.8067  36.8187  1.00270017 40462
METEOSAT-11 (MSG-4)     
1 40732U 15034A   26168.25712117  .00000060  00000+0  00000+0 0  9992
2 40732   3.2014  71.1096 0001741  11.8883 284.7520  1.00280400  7217
STAR ONE C4             
1 40733U 15034B   26168.52651905 -.00000270  00000+0  00000+0 0  9994
2 40733   0.0215 351.6390 0002023  84.9791 308.7007  1.00269460 40017
WGS F7 (USA 263)        
1 40746U 15036A   26168.86021744  .00000012  00000+0  00000+0 0  9992
2 40746   0.0024 355.3748 0000201 330.3636  65.0485  1.00272438 39873
INTELSAT 34 (IS-34)     
1 40874U 15039A   26168.88578421 -.00000291  00000+0  00000+0 0  9998
2 40874   0.0101 358.2034 0000465 330.1165 201.2037  1.00269570 39643
EUTELSAT 8 WEST B       
1 40875U 15039B   26168.89522898 -.00000071  00000+0  00000+0 0  9993
2 40875   0.0632 347.4221 0003926  96.5192 136.4895  1.00271512 39661
GSAT-6                  
1 40880U 15041A   26168.91317505 -.00000167  00000+0  00000+0 0  9998
2 40880   1.9210  82.5873 0003295 358.5400 236.3159  1.00272012 39604
INMARSAT 5-F3           
1 40882U 15042A   26168.64718083  .00000044  00000+0  00000+0 0  9990
2 40882   0.0172  12.6317 0000190 263.3909  42.4841  1.00265327 39579
MUOS-4                  
1 40887U 15044A   26168.76901410 -.00000100  00000+0  00000+0 0  9992
2 40887   4.3314  42.2542 0057890   2.1990 213.3913  1.00271147 39561
TJS-1                   
1 40892U 15046A   26168.92747512 -.00000161  00000+0  00000+0 0  9996
2 40892   0.3262  84.8952 0005521 359.7403 310.4863  1.00270799 39572
EXPRESS-AM8             
1 40895U 15048A   26168.09275470 -.00000115  00000+0  00000+0 0  9997
2 40895   0.0143 297.1564 0000568  10.6854 336.8957  1.00271066 39346
BEIDOU-3S IGSO-2S       
1 40938U 15053A   26168.70526789 -.00000132  00000+0  00000+0 0  9990
2 40938  49.2207 258.7761 0065582 192.0839 164.1337  1.00258762 39350
SKY MUSTER 1 (NBN1A)    
1 40940U 15054A   26168.71068348  .00000000  00000+0  00000+0 0  9990
2 40940   0.0234 353.3035 0001612  92.6240 216.1098  1.00268158 39261
ARSAT 2                 
1 40941U 15054B   26168.88075753 -.00000230  00000+0  00000+0 0  9993
2 40941   0.0381  62.3668 0001979   7.7717  72.0565  1.00270518 39313
MORELOS 3               
1 40946U 15056A   26168.46919677 -.00000050  00000+0  00000+0 0  9996
2 40946   3.1869  15.0767 0001048   6.6271 299.8511  1.00273381 39285
APSTAR-9                
1 40982U 15059A   26168.92496177 -.00000271  00000+0  00000+0 0  9990
2 40982   0.0361  51.3665 0002287 135.9887 193.8170  1.00271406 39126
TURKSAT 4B              
1 40984U 15060A   26168.90667502  .00000109  00000+0  00000+0 0  9993
2 40984   0.0166 323.6020 0002108 108.0504 210.8877  1.00273080 39102
ZHONGXING-2C            
1 41021U 15063A   26168.91733507 -.00000329  00000+0  00000+0 0  9994
2 41021   0.2760  89.6718 0007666  99.3862 150.7998  1.00270485 38980
